K01XP4P  7.6   0.15 K14AP 359.67350  181.27540  304.93641    2.60044  0.2236924  0.00354939  42.5630946  3 MPO273867    22   5 2001-2013 0.24 M-v 38h MPCADO     000A          2001 XP254         20130314
K01XP4Q  7.5   0.15 K14AP   4.80254   10.67308  107.18100    7.10033  0.4459040  0.00234721  56.0749156  2 MPO150915    14   4 2001-2008 0.33 M-v 38h MPCM       000A          2001 XQ254         20081130
K01XP4R  5.7   0.15 K14AP 230.79167   68.43482  179.72867    1.23369  0.0292377  0.00347023  43.2079676  4 MPO157360    48   6 2001-2009 0.39 M-v 38h MPCM       000A          2001 XR254         20090226
K01XP4U  6.7   0.15 K14AP 306.88441   69.43653  114.72027    6.49781  0.0815998  0.00340968  43.7179927  3 MPO273867    22   6 2001-2013 0.30 M-v 38h MPCADO     000A          2001 XU254         20130314
K01XP4X  7.5   0.15 K14AP 304.68065   95.53492   85.67510    1.75138  0.0310575  0.00337154  44.0471135  3 MPO260737    11   3 2001-2013 0.16 M-v 38h MPCADO     000A          2001 XX254         20130312
K01XP5D  5.5   0.15 K14AP 282.61115  107.27488  106.64854   18.06594  0.1107784  0.00394835  39.6453291  3 MPO167567    12   4 2001-2009 0.17 M-v 38h MPCM       000A          2001 XD255         20091023
K01XP5Z 11.1   0.15 K14AP 166.75195  287.09203   77.79370    2.60864  0.0307429  0.01539695  16.0021938  3 MPO 48174    13   2 2001-2003 0.19 M-v 38h MPCM       000A          2001 XZ255         20030303
K01XQ6W 19.5   0.15 K14AP 290.11774   90.08377  205.76782    4.61356  0.4514061  0.28531305   2.2851864  0 MPO311252   125   4 2001-2008 0.48 M-v 38h MPCALB     0C04          2001 XW266         20080929
K01Y01A 20.8   0.15 K14AP  19.73478  167.95417  255.30140   27.98638  0.4729352  0.31014464   2.1615230  5 MPO 30592    22   1   62 days 0.45 M-v 38h MPCW       2804          2001 YA1           20020217
K01Y01B 22.0   0.15 K14AP 353.41021  181.38780  262.58824   26.27895  0.2900448  0.45908726   1.6642014  5 MPO 26094    30   1   62 days 0.65 M-v 38h MPCS       2804          2001 YB1           20020217
K01Y01D 24.4   0.15 K14AP  55.60530  285.31996   85.83176    7.03982  0.4649188  0.54228078   1.4893150  8 MPO265613    32   1    7 days 0.73 M-v 3Eh MPCW       2803          2001 YD1           20011224
K01Y01E 20.8   0.15 K14AP 283.55393   97.60226   65.86601    4.45861  0.5012660  0.37264985   1.9125028  5 MPO 26094   120   1   58 days 0.50 M-v 3Eh MPCW       2803          2001 YE1           20020213
K01Y02M 19.5   0.15 K14AP 196.44829  292.66336   93.31172    4.65181  0.5742549  0.26904992   2.3763704  0 MPO251995   192   2 2001-2013 0.42 M-v 3Eh MPCADO     0804          2001 YM2           20130117
K01Y02N 25.4   0.15 K14AP  93.55870  289.90129   82.50373    1.63128  0.7184650  0.24791879   2.5095533  7 MPO 24004    35   1   21 days 0.68 M-v 3Eh MPCW       2803          2001 YN2           20020108
K01Y02O 21.0   0.15 K14AP 212.82082  311.52116  266.15567   48.04147  0.6878270  0.66967726   1.2938751  7 MPO 24004    25   1   24 days 0.46 M-v 3Eh MPCS       2803          2001 YO2           20020111
K01Y03O 22.8   0.15 K14AP 134.76729  129.53185  272.81201   13.11869  0.1656768  0.63591270   1.3392790  6 MPO 57848    15   1   21 days 0.51 M-v 38h MPCW       2804          2001 YO3           20020108
K01Y03P 22.0   0.15 K14AP  80.29179   36.29228  101.97035    7.92912  0.6209460  0.24989397   2.4963120  0 MPO 94413   127   2 2001-2005 0.69 M-v 3Eh MPCALB     8803          2001 YP3           20051210
K01Y03S 19.0   0.15 K14AP 350.00298  144.94842  282.09201   22.97064  0.1180310  0.45467722   1.6749451  4 MPO252941    46   2 2001-2013 0.51 M-v 38h MPCS       0005          2001 YS3           20130125
K01Y03T 20.8   0.15 K14AP 178.36105  171.07636  310.67249    2.76870  0.4650139  0.26989604   2.3714012  1 MPO260737   115   3 1991-2013 0.43 M-v 38h MPCADO     0804          2001 YT3           20130405
K01Y03U 20.1   0.15 K14AP 231.68473   83.01263   82.47056    8.54240  0.4640195  0.36376009   1.9435364  2 MPO165320    56   2 2001-2009 0.62 M-v 3Eh MPCS       0804          2001 YU3           20091120
K01Y03V 20.2   0.15 K14AP 283.76776  243.90608  107.63715    5.21123  0.7198017  0.36318946   1.9455716  2 MPO 65243    77   2 2001-2004 0.76 M-v 3Eh MPCS       8803          2001 YV3           20040520
K01Y04E 20.7   0.15 K14AP 233.45394  318.72140  305.63477    4.83817  0.5404128  1.76982282   0.6768870  0 MPO264922   178   2 2001-2012 0.62 M-v 3Eh MPCW       8802          2001 YE4           20120111
K01Y04M 19.9   0.15 K14AP 282.61776   96.24514  290.74295   26.21611  0.3891127  0.43655459   1.7209847  2 MPO192368    58   2 2001-2011 0.53 M-v 3Eh MPCALB     0804          2001 YM4           20110115
K01Y05B 20.9   0.15 K14AP 184.53004  115.36114  108.29459    5.55970  0.8653868  0.27419596   2.3465439  5 MPO 26095   396   1   11 days 0.49 M-v 3Eh MPCS       A803          2001 YB5           20020106
K01Y11X 20.0   0.15 K14AP 167.03764  301.78543  216.29412    5.47270  0.3895454  0.42500527   1.7520231  0 MPO148853    98   3 2001-2008 0.58 M-v 3Eh MPCALB     0804          2001 YX11          20081205
K01Y61K 13.7   0.15 K14AP 133.67969   15.61462   83.55712   12.38599  0.6931721  0.02868647  10.5686117  3 MPO 74120    31   1   61 days 0.55 M-v 38h MPCM       200A          2001 YK61          20020121
K02A00V 20.9   0.15 K14AP 121.31222  285.58869  124.02823    2.84245  0.6610348  0.25474499   2.4645196  1 MPO264922   211   2 2002-2005 0.66 M-v 3Eh MPCW       8803          2002 AV            20050711
K02A01Y 20.8   0.15 K14AP 110.62215  323.83585  287.87486   29.89211  0.4374418  1.43375242   0.7789088  0 MPO264922   116   4 2002-2013 0.67 M-v 3Eh MPCW       8802          2002 AY1           20130110
K02A01Z 22.0   0.15 K14AP  33.12703   96.94103  113.74603    8.14302  0.6645443  0.32060594   2.1142435  6 MPO 26113    64   1   35 days 0.55 M-v 3Eh MPCW       A803          2002 AZ1           20020211
K02A02A 20.2   0.15 K14AP 275.14747    7.43782  107.21912   35.07937  0.5267538  0.29058923   2.2574408  5 MPO 30603    92   1  115 days 0.73 M-v 3Eh MPCS       2804          2002 AA2           20020502
K02A02B 23.3   0.15 K14AP 102.41278  149.54927  103.10948   13.27959  0.3877540  1.27880538   0.8406201  9 MPO 24030    42   1   11 days 0.71 M-v 3Eh MPCS       2802          2002 AB2           20020118
K02A02D 20.6   0.15 K14AP 202.73388  343.12543  116.47386   32.39583  0.2467422  0.58053139   1.4231551  1 MPO159074    54   3 2002-2009 0.58 M-v 3Eh MPCADO     0804          2002 AD2           20090622
K02A02Q 18.6   0.15 K14AP 324.47979  159.53672  325.79078   11.66386  0.6083047  0.22734417   2.6587663  0 MPO189210   160   2 2001-2010 0.51 M-v 3Eh MPCW       0804          2002 AQ2           20101203
K02A03Y 20.7   0.15 K14AP 332.77036  179.14149  294.40580   20.49854  0.3501356  0.45669112   1.6700174  1 MPO 61215    94   2 2002-2003 0.58 M-v 3Eh MPCW       0804          2002 AY3           20031029
K02A04R 20.0   0.15 K14AP 151.59681   92.65734   60.89471    7.73677  0.6199046  0.18890073   3.0082480  3 MPO 31962    32   1  171 days 0.40 M-v 38h MPCW       2804          2002 AR4           20020606
K02A04T 21.2   0.15 K14AP 344.83188  203.00411  323.50897    1.50076  0.4464969  0.38637364   1.8669430  0 MPO108200   195   2 2001-2006 0.47 M-v 3Eh MPCS       8804          2002 AT4           20061127
K02A05C 19.9   0.15 K14AP 190.86897  331.57864   82.46241   16.55058  0.4932648  0.42283752   1.7580061  1 MPO311252    59   3 2002-2009 0.49 M-v 3Eh MPCALB     8803          2002 AC5           20090203
K02A05T 17.8   0.15 K14AP 328.35405  179.74219  332.74452   25.80805  0.5426085  0.22591890   2.6699370  1 MPO 90138    78   3 2002-2005 0.60 M-v 38h MPCADO     1804          2002 AT5           20051027
K02A05U 17.8   0.15 K14AP 187.25320   21.26536  354.99215    9.25660  0.7552616  0.34373608   2.0183012  2 MPO133339   127   5 2001-2008 0.49 M-v 3Eh MPCALB     1803          2002 AU5           20080201
K02A09C 21.0   0.15 K14AP 298.93528   28.42128    2.59225    2.28422  0.5605226  0.44317502   1.7038023  2 MPO181631    47   2 2002-2010 0.50 M-v 3Eh MPCALB     8803          2002 AC9           20100807
K02A09E 18.9   0.15 K14AP 183.64898  129.17966  127.48879   37.89088  0.4361972  0.82919956   1.1220960  3 MPO131804   110   4 2001-2008 0.46 M-v 3Eh MPCADO     0803          2002 AE9           20080115
K02A11N 18.2   0.15 K14AP  97.84502  116.66795  278.72461   19.85854  0.3354468  0.40234852   1.8171932  1 MPO264922   238   4 2002-2013 0.43 M-v 38h MPCADO     1C04          2002 AN11          20130615
K02A11O 22.4   0.15 K14AP  95.63874  306.01548  295.09533   13.06486  0.1624628  1.12235684   0.9170269  8 MPO 24033    11   1    3 days 0.49 M-v 3Eh MPCM       2802          2002 AO11          20020112
K02A14K 21.5   0.15 K14AP 296.38812  222.27937  117.39304   18.01783  0.1058317  0.96147912   1.0166610  3 MPO230183    49   2 2000-2002 0.42 M-v 3Eh MPCALB     0803          2002 AK14          20021228
K02A14L 17.8   0.15 K14AP 172.73061  226.13883  128.54303   22.99755  0.1261494  0.93251208   1.0376074  1 MPO 97543   734   4 1985-2006 0.51 M-v 3Eh MPCADO     1C03          2002 AL14          20060201
K02A29A 24.1   0.15 K14AP 226.68574  101.85514  106.38098   10.74778  0.0130186  0.99665973   0.9925935  2 MPO 57849    63   2 2002-2004 0.65 M-v 3Eh MPCS       0802          2002 AA29          20040115
K02A29C 17.6   0.15 K14AP 312.59793  129.63553   85.13059   26.59964  0.5031418  0.46849293   1.6418521  3 MPO311252    59   5 2001-2014 0.61 M-v 3Eh MPCALB     1803          2002 AC29          20140925
K02A29D 21.0   0.15 K14AP 208.55084  273.16249  112.69854   31.72113  0.4746368  0.42279105   1.7581349  8 MPO 62385    25   1   11 days 0.45 M-v 3Eh MPCW       2803          2002 AD29          20020119
K02A29E 24.6   0.15 K14AP 179.58628  306.43382  118.20618    3.60509  0.6074780  0.26755839   2.3851938  7 MPO265613    20   1    5 days 0.52 M-v 3Eh MPCW       2803          2002 AE29          20020118
